ONEWEB-0012             
1 44057U 19010A   24103.26102063  .00000062  00000+0  12889-3 0  9999
2 44057  87.9151  27.2167 0001010  67.1084 293.0153 13.16593282246832
ONEWEB-0010             
1 44058U 19010B   24103.28634126  .00000018  00000+0  12918-4 0  9997
2 44058  87.9151  27.1906 0001530  98.2601 261.8703 13.16592070246883
ONEWEB-0008             
1 44059U 19010C   24103.31169737  .00000137  00000+0  32534-3 0  9990
2 44059  87.9149  27.1871 0002098  74.3209 285.8153 13.16594196247002
ONEWEB-0007             
1 44060U 19010D   24103.39910859  .00000170  00000+0  41729-3 0  9992
2 44060  87.9029  57.5582 0001475  79.3208 280.8088 13.15549305246742
ONEWEB-0006             
1 44061U 19010E   24103.40305153  .00000195  00000+0  48519-3 0  9991
2 44061  87.9017  57.5466 0001540  84.7454 275.3852 13.15549971246799
ONEWEB-0011             
1 44062U 19010F   24103.37295584 -.00000065  00000+0 -20796-3 0  9999
2 44062  87.9016  57.5519 0001971  90.1087 270.0270 13.15548764246783
ONEWEB-0013             
1 45131U 20008A   24103.32766390 -.00000672  00000+0 -19902-2 0  9999
2 45131  87.8652 212.8141 0001330  75.1383 284.9891 13.09370032201917
ONEWEB-0017             
1 45132U 20008B   24103.27823078 -.00000555  00000+0 -16255-2 0  9999
2 45132  87.8992 194.4382 0002045 108.5994 251.5355 13.10372798203718
